{"fetched_at":"2026-05-29T02:59:36Z","count":6291,"tles":[{"name":"NABEO-1 & KICK STAGE","line1":"1 43692U 18088C   23314.31733987  .13938511 -14248-5  11978-2 0  9997","line2":"2 43692  84.9838 323.9349 0005240 252.4223 216.6114 16.39560015278701","category":"Other"},{"name":"STARLINK-5389","line1":"1 54835U 22177R   26148.09102132  .00000469  00000+0  26573-4 0  9998","line2":"2 54835  43.0026  47.9148 0000893 255.8884 104.1869 15.27573729189066","category":"Starlink"},{"name":"FENGYUN 1C DEB","line1":"1 36652U 99025DXW 26104.51133217  .00001692  00000+0  74889-3 0  9999","line2":"2 36652  98.9320 193.5780 0049421   2.1882 357.9503 14.23909551660710","category":"Weather"},{"name":"STARLINK-31466","line1":"1 59420U 24064Y   26148.21257280  .00000172  00000+0  15779-4 0  9996","line2":"2 59420  43.0032 327.4253 0000372 338.8032  21.2804 15.27571455121383","category":"Starlink"},{"name":"FENGYUN 1C DEB","line1":"1 30231U 99025WQ  26104.37216731  .00000669  00000+0  36004-3 0  9993","line2":"2 30231  98.7843 151.7933 0128291  41.4048  21.7724 14.11974419987506","category":"Weather"},{"name":"ION-MK01","line1":"1 46274U 20061C   26108.90635226  .05573010  24001-5  56936-3 0  9997","line2":"2 46274  97.1732 190.8876 0011766 257.0893 102.9092 16.37772736314086","category":"Other"},{"name":"STARLINK-6178","line1":"1 56387U 23061P   26147.94733066  .00000431  00000+0  25180-4 0  9996","line2":"2 56387  43.0052 110.0720 0001193 277.6615  82.4101 15.27575838168871","category":"Starlink"},{"name":"STARLINK-32434","line1":"1 61913U 24207B   26148.16780681  .00020895  00000+0  76655-3 0  9998","line2":"2 61913  43.0025 193.2072 0001616 273.7605  86.3062 15.27585504 86870","category":"Starlink"},{"name":"STARLINK-36600","line1":"1 67623U 26020G   26148.08158742  .00020609  00000+0  75595-3 0  9990","line2":"2 67623  43.0000  51.5901 0000823 274.8168  85.2590 15.27596950 18257","category":"Starlink"},{"name":"STARLINK-34608","line1":"1 64810U 25150W   26147.82683387  .00002737  00000+0  23708-3 0  9998","line2":"2 64810  70.0005 294.8079 0002981 268.4983  91.5835 14.98337002 48372","category":"Starlink"},{"name":"STARLINK-32929","line1":"1 63021U 25032S   26147.64810781  .00035135  00000+0  12797-2 0  9993","line2":"2 63021  43.0009 250.3092 0001576 261.4286  98.6387 15.27592463 72698","category":"Starlink"},{"name":"STARLINK-36672","line1":"1 68674U 26077N   26148.13330707  .00018849  00000+0  58460-3 0  9993","line2":"2 68674  97.2856  19.6745 0002480 106.5217 253.6298 15.33449011  7337","category":"Starlink"},{"name":"STARLINK-35494","line1":"1 65927U 25225T   26147.75869192  .00028161  00000+0  84143-3 0  9992","line2":"2 65927  53.1599 158.4333 0001315  86.8964 273.2189 15.34401071 36514","category":"Starlink"},{"name":"COSMOS 2251 DEB","line1":"1 33936U 93036ER  26104.56571497  .00001339  00000+0  27673-3 0  9995","line2":"2 33936  74.0161 162.5638 0029597 282.9470  76.8392 14.61154865906832","category":"Other"},{"name":"TJS-7","line1":"1 49115U 21077A   26148.48718262 -.00000115  00000+0  00000+0 0  9992","line2":"2 49115   0.4598  86.3063 0002440 324.4993 271.1574  1.00271697  9355","category":"Other"},{"name":"STARLINK-30934","line1":"1 58395U 23178X   26147.79645746  .00000862  00000+0  36637-4 0  9993","line2":"2 58395  53.1605 352.9504 0000793  85.8769 274.2324 15.34393812141944","category":"Starlink"},{"name":"INMARSAT 3-F4","line1":"1 24819U 97027A   26103.41711389  .00000099  00000+0  00000+0 0  9991","line2":"2 24819  11.4077  38.2544 0009272  42.1071 133.5206  0.99496931105418","category":"Other"},{"name":"FLOCK 4Y-28","line1":"1 55033U 23001AA  23361.77920223  .00018726  00000+0  70290-3 0  9993","line2":"2 55033  97.4491  60.6961 0009525  53.5702 306.6414 15.27215373 54574","category":"Other"},{"name":"FLOCK 4BE-17","line1":"1 60492U 24149AA  26148.20102253  .00019261  00000+0  49829-3 0  9990","line2":"2 60492  97.3778 231.4219 0001966   2.5477 357.5778 15.39123248 99180","category":"Other"},{"name":"STARLINK-35948","line1":"1 66633U 25271S   26148.20508632  .00017722  00000+0  53392-3 0  9991","line2":"2 66633  53.1604 128.9798 0001917  89.4517 270.6705 15.34428887 29762","category":"Starlink"},{"name":"FENGYUN 1C DEB","line1":"1 37008U 99025ECQ 26104.58598794  .00000608  00000+0  37701-3 0  9995","line2":"2 37008  99.1435 229.9542 0059400 273.3066  86.1309 14.08235603620433","category":"Weather"},{"name":"SUPERVIEW NEO-1 01","line1":"1 52320U 22043A   26148.21619444  .00006259  00000+0  32628-3 0  9990","line2":"2 52320  97.3414 221.6378 0002034  43.4625 316.6768 15.16314354226532","category":"Other"},{"name":"STARLINK-31657","line1":"1 59487U 24071D   26147.65660440 -.00000079  00000+0  66538-5 0  9997","line2":"2 59487  42.9973 253.6920 0000549 309.2335  50.8468 15.27569959120281","category":"Starlink"},{"name":"STARLINK-33869","line1":"1 63790U 25091R   26148.18982271  .00020479  00000+0  75137-3 0  9998","line2":"2 63790  42.9975 323.2963 0001945 268.7411  91.3217 15.27591583 61016","category":"Starlink"},{"name":"UNKNOWN","line1":"1 81391U          23339.70643681  .00008750  00000+0  33194-2 0  9998","line2":"2 81391  81.2016 328.7361 0014555  94.1468 266.1378 14.30952477475768","category":"Other"},{"name":"FENGYUN 1C DEB","line1":"1 30313U 99025AAA 26104.20298814  .00002048  00000+0  85346-3 0  9994","line2":"2 30313  98.8665 196.8924 0054340 342.8033  46.9184 14.26624971988359","category":"Weather"},{"name":"STARLINK-1653","line1":"1 46352U 20062AD  26148.16668980  .00047622  00000+0  32442-3 0  9993","line2":"2 46352  53.0382 291.0260 0006300 180.5735 129.5055 15.74391948  5813","category":"Starlink"},{"name":"STARLINK-6045","line1":"1 56462U 23064Q   26147.71190035 -.00000177  00000+0 -70636-5 0  9997","line2":"2 56462  69.9994 265.0049 0003229 267.6294  92.4495 14.98330116168070","category":"Starlink"},{"name":"STARLINK-32607","line1":"1 61977U 24210U   26148.17146937  .00024623  00000+0  90021-3 0  9999","line2":"2 61977  43.0028  91.1210 0003815 241.3747 118.6721 15.27616657 87072","category":"Starlink"},{"name":"STARLINK-32505","line1":"1 63085U 25037J   26148.17171656  .00005166  00000+0  44032-3 0  9997","line2":"2 63085  69.9999 154.2137 0004256 267.6786  92.3886 14.98334416 70452","category":"Starlink"},{"name":"STARLINK-37331","line1":"1 68738U 26082L   26148.15482818  .00071510  00000+0  13052-2 0  9994","line2":"2 68738  97.2856  11.7173 0002255  71.7650 288.3847 15.49173814  6617","category":"Starlink"},{"name":"SDA_1681","line1":"1 65991U 25230T   26148.19791618  .00000186  00000+0  15294-3 0  9993","line2":"2 65991  81.3012 230.0938 0003119 244.1198 115.9638 13.85301259 31054","category":"Other"},{"name":"COSMOS 2251 DEB","line1":"1 34040U 93036JB  26104.77234501  .00000536  00000+0  43180-3 0  9996","line2":"2 34040  73.9568 222.4633 0338747 151.9314 210.0540 13.68913817852834","category":"Other"},{"name":"ONEWEB-0327","line1":"1 49196U 21083L   26148.04633928 -.00000001  00000+0 -35875-4 0  9993","line2":"2 49196  87.9160 339.4697 0002211  84.8437 275.2947 13.18685909227369","category":"Other"},{"name":"GLOBALSTAR M003","line1":"1 25165U 98008D   26105.21392647 -.00000182  00000+0 -99322-3 0  9992","line2":"2 25165  51.9854  51.9532 0007804 176.0851 322.9642 12.12017355269849","category":"Other"},{"name":"IRIDIUM 171","line1":"1 43929U 19002H   26148.13776490  .00000133  00000+0  40544-4 0  9994","line2":"2 43929  86.3990   2.2583 0002078  83.9752 276.1680 14.34217279386080","category":"Other"},{"name":"SPACEBEE-158","line1":"1 55100U 23001CV  23361.14701718  .00035224  00000+0  12104-2 0  9996","line2":"2 55100  97.4519  60.4631 0013491  48.7352 311.5048 15.29937092 54496","category":"Other"},{"name":"IRIDE FM3","line1":"1 66697U 25276AH  26148.14963965  .00010024  00000+0  46140-3 0  9994","line2":"2 66697  97.4192 222.2244 0002715  63.8712 296.2802 15.20508100 27390","category":"Other"},{"name":"GLOBALSTAR M077","line1":"1 37191U 10054D   26148.16299002 -.00000058  00000+0  35944-3 0  9992","line2":"2 37191  51.9951 230.1211 0003042 137.5226 233.8409 11.67547376718808","category":"Other"},{"name":"SPACEBEE-140","line1":"1 52399U 22047F   23362.47242060  .00134473  00000+0  18850-2 0  9999","line2":"2 52399  97.4036  89.1351 0004109 353.4882   6.6319 15.56292558 93637","category":"Other"},{"name":"STARLINK-31699","line1":"1 59551U 24074T   26147.33564345 -.00000542  00000+0 -10189-4 0  9990","line2":"2 59551  43.0000 259.2504 0000184 358.9919   1.0933 15.27576103118045","category":"Starlink"},{"name":"STARLINK-33969","line1":"1 63855U 25093V   26147.61615160  .00020103  00000+0  73764-3 0  9997","line2":"2 63855  43.0051 352.0880 0001777 268.0378  92.0271 15.27598925 59822","category":"Starlink"},{"name":"UNKNOWN","line1":"1 81899U          26102.80178017  .00002138  00000+0  50124-2 0  9995","line2":"2 81899 102.4129 231.4381 0170533 316.2883  42.4826 13.20627981594966","category":"Other"},{"name":"FENGYUN 1C DEB","line1":"1 30388U 99025ADB 26104.75863171  .00000554  00000+0  21949-3 0  9999","line2":"2 30388  98.5890 127.0115 0221520  66.9427 346.2022 14.20123513991781","category":"Weather"},{"name":"STARLINK-6318","line1":"1 56530U 23065AD  26148.20130088  .00001693  00000+0  71036-4 0  9997","line2":"2 56530  43.0049  97.9472 0001395 264.8023  95.2670 15.27582436169055","category":"Starlink"},{"name":"STARLINK-32509","line1":"1 62042U 24216L   26148.05811731  .00020555  00000+0  75414-3 0  9996","line2":"2 62042  42.9973 168.1270 0000921 337.0316  23.0494 15.27591613 86017","category":"Starlink"},{"name":"2026-027F","line1":"1 67751U 26027F   26147.94123297  .00002168  00000+0  12985-3 0  9994","line2":"2 67751  97.5048 275.7724 0009979 177.2268 182.9020 15.12018131 15856","category":"Other"},{"name":"STARLINK-34730","line1":"1 64938U 25158G   26148.19122789  .00002822  00000+0  19956-3 0  9997","line2":"2 64938  97.4355  12.0775 0002123  75.3026 284.8436 15.05654506 47326","category":"Starlink"}]}